LEMUR-2-HUBBLE-4        
1 64565U 25135AP  26192.85867307  .00001122  00000+0  11146-3 0  9997
2 64565  97.7716 306.4778 0002415 171.5660 188.5601 14.93679245 57559
LEMUR-2-SEJONG-2        
1 64586U 25135BL  26192.90597815  .00002176  00000+0  19470-3 0  9998
2 64586  97.7702 307.7628 0003709 234.1005 125.9873 14.96896832 57643
LEMUR-2-HUBBLE-5        
1 64840U 25135BT  26192.86868805  .00001172  00000+0  11467-3 0  9999
2 64840  97.7737 307.1531 0004167 248.9556 111.1218 14.94207446 57593
LEMUR-2-KARENDARRELL    
1 64841U 25135BU  26192.92881349  .00004432  00000+0  35629-3 0  9993
2 64841  97.7707 309.1021 0012073 114.2075 246.0412 15.00470423 57727
LEMUR-2-LUCILLE-ROSE    
1 65403U 25135BV  26192.83555560  .00003816  00000+0  30738-3 0  9992
2 65403  97.7712 309.0456 0014466 199.4062 160.6612 15.00464612 52336
LEMUR-2-AFFIE-WAUWIE    
1 66295U 25248C   26192.44721467  .00012568  00000+0  45936-3 0  9995
2 66295  45.3896 343.4521 0008636 232.3245 127.6861 15.28146061 38300
OTTER SDM               
1 66678U 25276N   26192.93752492  .00004041  00000+0  19059-3 0  9991
2 66678  97.4210 266.0056 0004228 269.4972  90.5779 15.20033189 34172
LEMUR-2-STAS-GORBUK     
1 66686U 25276W   26192.76056604  .00003406  00000+0  16302-3 0  9995
2 66686  97.4242 265.8836 0003449 265.6939  94.3901 15.19636638 34146
LEMUR-2-TEODOR          
1 66768U 25276DG  26192.71735336  .00003149  00000+0  14384-3 0  9999
2 66768  97.4147 266.1085 0002273  90.9117 269.2380 15.21313893 34177
LEMUR-2-LAILA           
1 66776U 25276DQ  26192.75343614  .00003617  00000+0  16366-3 0  9998
2 66776  97.4172 266.2807 0002927  99.4430 260.7137 15.21539973 34181
LEMUR-2-CELIJO-SB-PK    
1 66781U 25276DW  26192.71667674  .00003423  00000+0  27784-3 0  9996
2 66781  97.5201 262.6848 0007170  72.7067 287.4941 15.00264436 26301
LEMUR-2-FINNIAN         
1 66782U 25276DX  26191.88755149  .00001778  00000+0  14533-3 0  9998
2 66782  97.5322 262.1410 0008491  17.3643 342.7870 15.00584478 23559
LEMUR-2-STARLIGHT       
1 66783U 25276DY  26192.73211157  .00003858  00000+0  31969-3 0  9993
2 66783  97.5233 262.5314 0014758  57.4560 302.8087 14.99328464 33875
LEMUR-2-TARTIFLETTE     
1 66784U 25276DZ  26192.73047929  .00003401  00000+0  28252-3 0  9993
2 66784  97.5236 262.5376 0013860  65.4884 294.7783 14.99314524 33872
LEMUR-2-VUKASIN         
1 66785U 25276EA  26192.77031164  .00002931  00000+0  23704-3 0  9996
2 66785  97.5240 262.9290 0003577  64.9856 295.1739 15.00527711 33833
LEMUR-2-HOTSPUR-TOM     
1 66786U 25276EB  26192.72465754  .00003174  00000+0  26466-3 0  9996
2 66786  97.5223 262.5077 0013834  56.6609 303.5937 14.99219626 33806
